NORAD_CAT_ID,OBJECT_NAME,OBJECT_TYPE,EPOCH,MEAN_MOTION,ECCENTRICITY,INCLINATION,RA_OF_ASC_NODE,ARG_OF_PERICENTER,MEAN_ANOMALY,BSTAR,MEAN_MOTION_DOT,MEAN_MOTION_DDOT,TLE_LINE0,TLE_LINE1,TLE_LINE2,SEMIMAJOR_AXIS,PERIOD,APOGEE,PERIGEE,DECAYED
55942.0,STARLINK-5917,PAYLOAD,2023-04-04 22:00:00,15.69879948,0.0003828,69.9962,130.036,269.4051,288.7206,0.00078394,0.00094957,0.0,0 STARLINK-5917,1 55942U 23037AE  23094.91667824  .00094957  00000-0  78394-3 0  9999,2 55942  69.9962 130.0360 0003828 269.4051 288.7206 15.69879948  1302,6737.377,91.727,361.822,356.663,0.0
55942.0,STARLINK-5917,PAYLOAD,2023-04-05 06:00:00,15.69955515,0.0003701,69.997,129.0987,271.8845,9.5634,-0.0006885,-0.00082307,0.0,0 STARLINK-5917,1 55942U 23037AE  23095.25001157 -.00082307  00000-0 -68850-3 0  9992,2 55942  69.9970 129.0987 0003701 271.8845   9.5634 15.69955515  3437,6737.161,91.722,361.52,356.533,0.0
55942.0,STARLINK-5917,PAYLOAD,2023-04-05 14:00:01,15.69934124,0.0003604,69.9976,128.1612,276.5927,88.195,-7.8621e-05,-9.66e-05,0.0,0 STARLINK-5917,1 55942U 23037AE  23095.58334491 -.00009660  00000-0 -78621-4 0  9997,2 55942  69.9976 128.1612 0003604 276.5927  88.1950 15.69934124  1304,6737.222,91.724,361.516,356.659,0.0
55942.0,STARLINK-5917,PAYLOAD,2023-04-05 16:00:00,15.69971517,0.0003523,69.9981,127.9269,274.8881,200.7254,-0.00083247,-0.00099335,0.0,0 STARLINK-5917,1 55942U 23037AE  23095.66667824 -.00099335  00000-0 -83247-3 0  9992,2 55942  69.9981 127.9269 0003523 274.8881 200.7254 15.69971517  3493,6737.115,91.721,361.354,356.607,0.0
55942.0,STARLINK-5917,PAYLOAD,2023-04-05 22:00:00,15.69852619,0.0003566,69.9976,127.224,267.6571,180.4951,0.0010365,0.00125936,0.0,0 STARLINK-5917,1 55942U 23037AE  23095.91667824  .00125936  00000-0  10365-2 0  9995,2 55942  69.9976 127.2240 0003566 267.6571 180.4951 15.69852619  1309,6737.456,91.728,361.723,356.918,0.0
55942.0,STARLINK-5917,PAYLOAD,2023-04-06 10:00:00,15.69891976,0.0003536,69.9991,125.818,274.7862,118.3432,0.00055925,0.00067487,0.0,0 STARLINK-5917,1 55942U 23037AE  23096.41667824  .00067487  00000-0  55925-3 0  9999,2 55942  69.9991 125.8180 0003536 274.7862 118.3432 15.69891976  3611,6737.343,91.726,361.59,356.826,0.0
55942.0,STARLINK-5917,PAYLOAD,2023-04-06 14:00:01,15.69960029,0.0003554,69.9991,125.3492,273.6438,341.2076,-0.00043658,-0.00052461,0.0,0 STARLINK-5917,1 55942U 23037AE  23096.58335648 -.00052461  00000-0 -43658-3 0  9991,2 55942  69.9991 125.3492 0003554 273.6438 341.2076 15.69960029  1300,6737.148,91.722,361.408,356.619,0.0
55942.0,STARLINK-5917,PAYLOAD,2023-04-06 22:00:00,15.69879682,0.0003445,69.9996,124.4121,264.5415,73.622,0.00056556,0.00068221,0.0,0 STARLINK-5917,1 55942U 23037AE  23096.91667824  .00068221  00000-0  56556-3 0  9992,2 55942  69.9996 124.4121 0003445 264.5415  73.6220 15.69879682  3692,6737.378,91.727,361.564,356.922,0.0
55942.0,STARLINK-5917,PAYLOAD,2023-04-07 14:00:01,15.69956935,0.0003383,69.9996,122.5378,265.8269,238.9655,-0.00046345,-0.00055647,0.0,0 STARLINK-5917,1 55942U 23037AE  23097.58334491 -.00055647  00000-0 -46345-3 0  9992,2 55942  69.9996 122.5378 0003383 265.8269 238.9655 15.69956935  3793,6737.157,91.722,361.301,356.743,0.0
55942.0,STARLINK-5917,PAYLOAD,2023-04-08 04:40:39,15.69911605,0.0004191,69.9993,120.8188,277.1586,82.9133,-1.3674e-05,-1.856e-05,0.0,0 STARLINK-5917,1 55942U 23037AE  23098.19490299 -.00001856  00000-0 -13674-4 0  9992,2 55942  69.9993 120.8188 0004191 277.1586  82.9133 15.69911605  3890,6737.287,91.725,361.975,356.328,0.0
55942.0,STARLINK-5917,PAYLOAD,2023-04-08 10:47:39,15.699261,0.0003241,69.9994,120.1018,250.3983,109.6863,2.8809e-05,3.253e-05,0.0,0 STARLINK-5917,1 55942U 23037AE  23098.44976572  .00003253  00000-0  28809-4 0  9990,2 55942  69.9994 120.1018 0003241 250.3983 109.6863 15.69926100  3933,6737.245,91.724,361.294,356.927,0.0
55942.0,STARLINK-5917,PAYLOAD,2023-04-09 11:15:41,15.69928922,0.0003075,69.9996,117.2366,259.2819,100.803,2.9801e-05,3.373e-05,0.0,0 STARLINK-5917,1 55942U 23037AE  23099.46923301  .00003373  00000-0  29801-4 0  9991,2 55942  69.9996 117.2366 0003075 259.2819 100.8030 15.69928922  3752,6737.237,91.724,361.174,357.031,0.0
55942.0,STARLINK-5917,PAYLOAD,2023-04-09 12:47:26,15.69931709,0.0003051,70.0011,117.0586,258.793,101.2923,3.7498e-05,4.3e-05,0.0,0 STARLINK-5917,1 55942U 23037AE  23099.53294934  .00004300  00000-0  37498-4 0  9994,2 55942  70.0011 117.0586 0003051 258.7930 101.2923 15.69931709  4100,6737.229,91.724,361.15,357.039,0.0
55942.0,STARLINK-5917,PAYLOAD,2023-04-10 13:15:28,15.69928538,0.0003636,70.0002,114.1906,264.1096,95.9685,2.2901e-05,2.542e-05,0.0,0 STARLINK-5917,1 55942U 23037AE  23100.55241571  .00002542  00000-0  22901-4 0  9997,2 55942  70.0002 114.1906 0003636 264.1096  95.9685 15.69928538  4264,6737.238,91.724,361.553,356.654,0.0
55942.0,STARLINK-5917,PAYLOAD,2023-04-10 17:50:44,15.69929378,0.0003437,69.9999,113.654,264.0863,95.9941,2.7489e-05,3.095e-05,0.0,0 STARLINK-5917,1 55942U 23037AE  23100.74356562  .00003095  00000-0  27489-4 0  9995,2 55942  69.9999 113.6540 0003437 264.0863  95.9941 15.69929378  3957,6737.236,91.724,361.417,356.785,0.0
55942.0,STARLINK-5917,PAYLOAD,2023-04-11 12:11:47,15.69884785,0.0003101,70.0011,111.5044,264.8256,95.2586,-6.8075e-05,-8.376e-05,0.0,0 STARLINK-5917,1 55942U 23037AE  23101.50819347 -.00008376  00000-0 -68075-4 0  9990,2 55942  70.0011 111.5044 0003101 264.8256  95.2586 15.69884785  4077,6737.364,91.726,361.318,357.139,0.0
55942.0,STARLINK-5917,PAYLOAD,2023-04-11 18:18:47,15.69917174,0.0003441,70.0001,110.7875,268.9275,91.1527,2.8882e-05,3.26e-05,0.0,0 STARLINK-5917,1 55942U 23037AE  23101.76305082  .00003260  00000-0  28882-4 0  9991,2 55942  70.0001 110.7875 0003441 268.9275  91.1527 15.69917174  4453,6737.271,91.725,361.454,356.818,0.0
55942.0,STARLINK-5917,PAYLOAD,2023-04-12 03:29:16,15.69983121,0.0002743,70.0013,109.7139,265.9138,94.1744,0.00018733,0.00022425,0.0,0 STARLINK-5917,1 55942U 23037AE  23102.14532631  .00022425  00000-0  18733-3 0  9993,2 55942  70.0013 109.7139 0002743 265.9138  94.1744 15.69983121  4512,6737.082,91.721,360.795,357.099,0.0
55942.0,STARLINK-5917,PAYLOAD,2023-04-12 09:36:18,15.69912354,0.0002378,70.0022,108.9985,282.2603,77.8326,-3.1507e-06,-5.91e-06,0.0,0 STARLINK-5917,1 55942U 23037AE  23102.40021757 -.00000591  00000-0 -31507-5 0  9992,2 55942  70.0022 108.9985 0002378 282.2603  77.8326 15.69912354  4553,6737.285,91.725,360.752,357.548,0.0
55942.0,STARLINK-5917,PAYLOAD,2023-04-12 17:15:04,15.69923495,0.0002223,70.0026,108.1011,287.4235,72.6717,1.2848e-05,1.333e-05,0.0,0 STARLINK-5917,1 55942U 23037AE  23102.71879771  .00001333  00000-0  12848-4 0  9992,2 55942  70.0026 108.1011 0002223 287.4235  72.6717 15.69923495  4607,6737.253,91.724,360.616,357.62,0.0
55942.0,STARLINK-5917,PAYLOAD,2023-04-13 10:04:20,15.69901505,0.0002493,70.0027,106.1322,282.1455,77.9461,-3.5599e-05,-4.486e-05,0.0,0 STARLINK-5917,1 55942U 23037AE  23103.41968704 -.00004486  00000-0 -35599-4 0  9997,2 55942  70.0027 106.1322 0002493 282.1455  77.9461 15.69901505  4372,6737.316,91.725,360.86,357.501,0.0
55942.0,STARLINK-5917,PAYLOAD,2023-04-13 17:43:05,15.69929852,0.0002624,70.0017,105.2373,287.9623,72.1286,1.0148e-05,1.008e-05,0.0,0 STARLINK-5917,1 55942U 23037AE  23103.73825951  .00001008  00000-0  10148-4 0  9996,2 55942  70.0017 105.2373 0002624 287.9623  72.1286 15.69929852  4763,6737.235,91.724,360.868,357.332,0.0
55942.0,STARLINK-5917,PAYLOAD,2023-04-14 09:00:36,15.69911022,0.0002987,70.0018,103.4462,257.1764,102.9098,-5.7424e-05,-7.107e-05,0.0,0 STARLINK-5917,1 55942U 23037AE  23104.37542791 -.00007107  00000-0 -57424-4 0  9991,2 55942  70.0018 103.4462 0002987 257.1764 102.9098 15.69911022  4864,6737.289,91.725,361.166,357.141,0.0
55942.0,STARLINK-5917,PAYLOAD,2023-04-15 06:25:08,15.69929309,0.0003751,69.9995,100.9363,265.6213,94.4554,2.2561e-05,2.501e-05,0.0,0 STARLINK-5917,1 55942U 23037AE  23105.26745434  .00002501  00000-0  22561-4 0  9994,2 55942  69.9995 100.9363 0003751 265.6213  94.4554 15.69929309  5006,6737.236,91.724,361.628,356.574,0.0
55942.0,STARLINK-5917,PAYLOAD,2023-04-15 09:28:39,15.69901695,0.0002737,70.0008,100.5788,258.09,101.9989,-3.2509e-05,-4.115e-05,0.0,0 STARLINK-5917,1 55942U 23037AE  23105.39490343 -.00004115  00000-0 -32509-4 0  9992,2 55942  70.0008 100.5788 0002737 258.0900 101.9989 15.69901695  5029,6737.315,91.725,361.024,357.336,0.0
55942.0,STARLINK-5917,PAYLOAD,2023-04-15 17:07:24,15.69921546,0.0003063,70.0016,99.6831,276.0819,84.0027,1.9032e-05,2.076e-05,0.0,0 STARLINK-5917,1 55942U 23037AE  23105.71347919  .00002076  00000-0  19032-4 0  9996,2 55942  70.0016  99.6831 0003063 276.0819  84.0027 15.69921546  5073,6737.258,91.724,361.187,357.06,0.0
55942.0,STARLINK-5917,PAYLOAD,2023-04-16 09:56:40,15.69922813,0.0003526,70.0011,97.7113,270.2691,89.8101,1.7419e-06,-3e-08,0.0,0 STARLINK-5917,1 55942U 23037AE  23106.41435837 -.00000003  00000-0  17419-5 0  9998,2 55942  70.0011  97.7113 0003526 270.2691  89.8101 15.69922813  4846,6737.255,91.724,361.495,356.744,0.0
55942.0,STARLINK-5917,PAYLOAD,2023-04-17 05:49:27,15.69930192,0.0003449,70.001,95.3835,266.5455,93.5346,3.947e-05,4.537e-05,0.0,0 STARLINK-5917,1 55942U 23037AE  23107.24267436  .00004537  00000-0  39470-4 0  9993,2 55942  70.0010  95.3835 0003449 266.5455  93.5346 15.69930192  5315,6737.234,91.724,361.422,356.775,0.0
55942.0,STARLINK-5917,PAYLOAD,2023-04-17 08:52:57,15.69919262,0.00033,70.0008,95.0243,271.2869,88.7949,4.5909e-06,3.39e-06,0.0,0 STARLINK-5917,1 55942U 23037AE  23107.37011196  .00000339  00000-0  45909-5 0  9998,2 55942  70.0008  95.0243 0003300 271.2869  88.7949 15.69919262  5332,6737.265,91.724,361.353,356.907,0.0
55942.0,STARLINK-5917,PAYLOAD,2023-04-18 07:49:14,15.69924826,0.0003066,70.0009,92.3379,260.7001,99.3848,1.2758e-05,1.322e-05,0.0,0 STARLINK-5917,1 55942U 23037AE  23108.32586050  .00001322  00000-0  12758-4 0  9998,2 55942  70.0009  92.3379 0003066 260.7001  99.3848 15.69924826  5140,6737.249,91.724,361.18,357.048,0.0
